ONEWEB-0340             
1 49206U 21083W   25176.36288293  .00000048  00000+0  87726-4 0  9992
2 49206  87.9137  46.3554 0001725  79.5288 280.6038 13.18694574182948
ONEWEB-0341             
1 49207U 21083X   25176.37048437  .00000086  00000+0  18525-3 0  9990
2 49207  87.9134  46.3643 0002247  71.1423 288.9953 13.18807222182969
ONEWEB-0342             
1 49208U 21083Y   25175.93032245  .00000016  00000+0  69361-5 0  9991
2 49208  87.9252 345.5981 0001918  94.9424 265.1929 13.20772891190929
ONEWEB-0343             
1 49209U 21083Z   25176.13825788  .00000024  00000+0  28048-4 0  9992
2 49209  87.9140  46.3977 0002415  77.4689 282.6713 13.18753272182980
ONEWEB-0344             
1 49210U 21083AA  25176.30399524 -.00000096  00000+0 -29781-3 0  9992
2 49210  87.8963  31.1933 0001989  72.3928 287.7418 13.13469333184047
ONEWEB-0345             
1 49211U 21083AB  25176.14318079  .00000060  00000+0  12851-3 0  9990
2 49211  87.8962  31.1779 0002001  70.5744 289.5601 13.13469504184030
ONEWEB-0346             
1 49212U 21083AC  25176.37526616 -.00000007  00000+0 -50602-4 0  9994
2 49212  87.9140  46.3725 0001175  72.5304 287.5956 13.18788379182953
ONEWEB-0348             
1 49213U 21083AD  25176.45115056 -.00000070  00000+0 -20466-3 0  9990
2 49213  87.9263 345.5014 0001575  72.7728 287.3578 13.20773031189723
